P/2019 A8 (PANSTARRS),e,2.8882,124.8513,45.5380,3.735445,0.1365182,0.40781351,131.7920,09/13.0/2021,2000,g 16.0,4.0
# From MPC118842
C/2019 A9 (PANSTARRS),e,84.1700,278.3835,237.9439,39.41707,0.0039827,0.96369849,3.1054,09/13.0/2021,2000,g 15.0,4.0
# From MPC114606
C/2019 B1 (Africano),e,123.3655,290.4321,174.8238,142.1830,0.0005813,0.98877107,0.0000,03/19.5215/2019,2000,g 16.0,4.0
# From MPC115885
P/2019 B2 (Groeller),e,16.9228,175.9528,0.2028,3.879725,0.1289741,0.37136174,106.5655,09/13.0/2021,2000,g 14.5,4.0
# From MPEC 2021-R75
C/2019 B3 (PANSTARRS),h,01/20.2627/2021,66.5358,358.4351,263.9291,1.001919,6.823212,2000,5.5,4.0
# From MPEC 2021-P47
C/2019 C1 (ATLAS),e,36.0336,212.3859,319.1692,703.5574,0.0000528,0.99064647,0.0000,05/05.2917/2020,2000,g 10.0,4.0
# From MPC118842
C/2019 D1 (Flewelling),e,34.0620,231.7062,70.5629,142.7662,0.0005778,0.98893182,0.0000,05/11.8473/2019,2000,g 13.0,4.0
# From MPEC 2021-P47
C/2019 E3 (ATLAS),h,11/13.3404/2023,84.2969,347.2520,280.6336,1.002867,10.314134,2000,2.5,4.0
# From MPEC 2021-R75
C/2019 F1 (ATLAS-Africano),h,06/22.8989/2021,54.1745,38.7229,251.1395,1.003750,3.595736,2000,5.5,4.0
# From MPEC 2021-P47
C/2019 F2 (ATLAS),e,19.2197,175.5940,11.4868,16.69917,0.0144431,0.86569309,10.6177,09/13.0/2021,2000,g 12.0,4.0
# From MPEC 2021-P47
A/2019 G2,e,159.2051,208.1507,82.6186,601.6673,0.0000668,0.99619269,0.0000,12/09.8679/2019,2000,g 16.5,2.0
# From MPEC 2021-N06
A/2019 G4,h,09/16.1367/2018,138.3849,130.4642,287.8705,1.001972,5.856882,2000,13.0,2.0
# From MPC114607
P/2019 GG21 (PANSTARRS),e,6.0841,340.5715,208.5947,7.474796,0.0482286,0.47263561,41.2829,09/13.0/2021,2000,g 12.0,4.0
# From MPC115885
C/2019 H1 (NEOWISE),e,104.5527,269.2107,19.3417,239.8757,0.0002653,0.99230297,0.0000,04/27.8750/2019,2000,g 15.5,4.0
# From MPC118842
C/2019 J1 (Lemmon),e,24.5499,98.1000,167.7949,69.37279,0.0017058,0.96423580,1.5148,09/13.0/2021,2000,g 12.0,4.0
# From MPEC 2021-R75
C/2019 J2 (Palomar),e,105.1975,25.5181,98.7370,160.0435,0.0004868,0.98921432,0.0000,07/19.7745/2019,2000,g 13.0,4.0
# From MPC117071
C/2019 J3 (ATLAS),h,08/02.0638/2019,131.4042,270.5403,16.6094,1.000512,2.374625,2000,13.5,4.0
# From MPC117071
C/2019 JU6 (ATLAS),e,148.3166,21.7578,94.9405,351.3543,0.0001497,0.99417503,0.0000,05/31.9892/2019,2000,g 14.5,4.0
# From MPEC 2021-P47
C/2019 K1 (ATLAS),h,02/13.0042/2020,87.1245,73.3744,265.7139,1.000055,2.012576,2000,10.0,4.0
# From MPC119997
C/2019 K4 (Ye),e,105.2985,180.1516,139.7804,1355,0.0000198,0.99833143,0.0000,06/16.1554/2019,2000,g 12.5,4.0
# From MPEC 2021-P47
C/2019 K5 (Young),e,15.3171,177.1420,175.0145,161.0256,0.0004823,0.98735477,0.0000,06/22.9765/2019,2000,g 13.0,4.0
# From MPEC 2021-P47
C/2019 K6 (PANSTARRS),e,132.3823,42.9558,187.6397,1912,0.0000118,0.99794478,0.0000,05/20.2877/2020,2000,g 11.5,4.0
# From MPEC 2021-R75
C/2019 K7 (Smith),h,06/17.1388/2020,103.5422,307.9300,27.3352,1.000042,4.475996,2000,6.0,4.0
# From MPEC 2021-R75
C/2019 K8 (ATLAS),e,93.2113,291.0475,85.3972,2364,0.0000086,0.99864856,0.0000,07/21.6052/2019,2000,g 11.5,4.0
# From MPC118095
C/2019 L1 (PANSTARRS),e,9.9904,254.4196,49.9869,9.840302,0.0319294,0.70601485,24.3816,09/13.0/2021,2000,g 13.5,4.0
# From MPC115886
C/2019 L2 (NEOWISE),e,152.1939,12.5654,18.7655,24.86971,0.0079469,0.93477717,7.1150,09/13.0/2021,2000,g 16.0,4.0
# From MPEC 2021-R75
P/2019 LD2 (ATLAS),e,11.6071,179.5831,122.6489,5.257125,0.0817677,0.12960450,43.3496,09/13.0/2021,2000,g  8.5,4.0
# From MPEC 2021-R75
C/2019 L3 (ATLAS),h,01/09.6405/2022,48.3642,290.7889,171.6154,1.001359,3.554464,2000,4.5,4.0
# From MPC118095
C/2019 LB7 (Kleyna),e,164.2912,3.9001,336.4759,34.58148,0.0048466,0.92817295,4.3684,09/13.0/2021,2000,g 17.0,4.0
# From MPC118843
P/2019 M2 (ATLAS),e,12.2813,307.5996,332.5800,3.027299,0.1871204,0.64811881,152.2058,09/13.0/2021,2000,g 21.2,4.0
# From MPC118095
C/2019 M3 (ATLAS),h,01/02.2135/2019,99.4770,154.9056,87.8973,1.000531,2.418885,2000,12.2,4.0
# From MPEC 2021-R75
C/2019 N1 (ATLAS),e,82.4280,13.5758,193.4431,9191,0.0000011,0.99981452,0.0000,12/01.7855/2020,2000,g  7.5,4.0
# From MPEC 2021-N06
C/2019 NJ3 (Lemmon),h,10/22.4804/2020,99.4387,142.4540,246.8681,1.001272,4.361988,2000,9.0,4.0
# From MPEC 2021-R75
A/2019 O2,e,93.2905,48.2978,129.6674,57.35143,0.0022693,0.83117058,358.7022,09/13.0/2021,2000,g  9.5,2.0
# From MPEC 2021-R75
C/2019 O3 (Palomar),h,03/08.4831/2021,89.8166,300.3840,60.0760,1.002970,8.819595,2000,3.5,4.0
# From MPEC 2021-P47
A/2019 O4,e,115.0918,354.9108,61.8539,32.96398,0.0052077,0.88940661,3.0247,09/13.0/2021,2000,g 15.5,2.0
# From MPEC 2021-N06
C/2019 Q1 (Lemmon),h,07/20.2318/2020,155.7256,42.4679,56.1219,1.000592,4.998614,2000,8.5,4.0
# From MPC117072
A/2019 Q2,e,159.0252,188.0234,176.3024,57.15385,0.0022811,0.97798754,0.0000,07/22.1510/2019,2000,g 18.0,2.0
# From MPC117072
C/2019 Q3 (PANSTARRS),h,08/21.5149/2018,65.5251,151.3224,152.7219,1.003614,7.256729,2000,8.5,4.0
# From MPC117072
P/2019 S2 (PANSTARRS),e,10.4718,93.1350,216.9754,4.738169,0.0955627,0.20665159,89.2385,09/13.0/2021,2000,g 13.5,4.0
# From MPC118096
P/2019 S3 (PANSTARRS),e,8.6947,150.1598,212.9916,3.414976,0.1561790,0.47109127,116.9172,09/13.0/2021,2000,g 18.3,4.0
# From MPEC 2021-R75
C/2019 S4 (Lemmon),e,92.0316,63.1600,71.3660,231.6055,0.0002796,0.98513743,0.0000,04/07.9204/2020,2000,g 11.0,4.0
# From MPEC 2021-P47
A/2019 T1,e,120.8713,6.9496,91.0496,38.32033,0.0041549,0.88826345,1.0038,09/13.0/2021,2000,g 13.0,2.0
# From MPEC 2021-P47
C/2019 T2 (Lemmon),e,111.4889,155.6425,239.3932,1925,0.0000117,0.99862551,0.0000,04/22.2923/2021,2000,g  9.0,4.0
# From MPEC 2021-R75
C/2019 T3 (ATLAS),e,121.8619,139.5213,112.3027,3052,0.0000058,0.99805142,0.0000,03/02.9660/2021,2000,g  6.8,4.0
# From MPEC 2021-P47
C/2019 T4 (ATLAS),e,53.6232,199.9433,351.2139,1020,0.0000302,0.99584287,0.0000,06/09.2275/2022,2000,g  5.0,4.0
# From MPEC 2021-P47
P/2019 T5 (ATLAS),e,33.4379,247.6682,189.5712,7.997334,0.0435799,0.80908713,33.7245,09/13.0/2021,2000,g 15.0,4.0
# From MPEC 2021-P47
P/2019 T6 (PANSTARRS),e,18.6946,71.2845,328.9121,5.434653,0.0777941,0.62266844,52.5199,09/13.0/2021,2000,g 15.5,4.0
# From MPC118096
P/2019 U4 (PANSTARRS),e,11.6945,200.0089,180.9772,3.520454,0.1492128,0.47567470,108.2427,09/13.0/2021,2000,g 19.0,4.0
# From MPEC 2021-R75
C/2019 U5 (PANSTARRS),h,03/30.1420/2023,113.5188,2.6423,181.5522,1.000807,3.622956,2000,4.5,4.0
# From MPEC 2021-P47
C/2019 U6 (Lemmon),e,60.9991,235.6993,329.6541,394.2037,0.0001259,0.99768056,0.0000,06/18.7594/2020,2000,g 10.0,4.0
# From MPC119998
C/2019 V1 (Borisov),e,61.8652,83.1949,51.1831,1608,0.0000153,0.99807449,0.0000,07/16.4619/2020,2000,g 11.0,4.0
# From MPEC 2021-P47
P/2019 V2 (Groeller),e,11.8056,189.1796,335.9610,7.510238,0.0478876,0.33153734,15.7410,09/13.0/2021,2000,g 10.0,4.0
# From MPC119998
P/2019 W1 (PANSTARRS),e,23.4646,35.3893,18.6849,4.549854,0.1015565,0.26647084,87.2597,09/13.0/2021,2000,g 12.9,4.0
# From MPEC 2021-P47
P/2019 X1 (Pruyne),e,10.2459,43.6861,36.8007,6.172945,0.0642637,0.30292998,50.4291,09/13.0/2021,2000,g 10.4,4.0
# From MPC119999
C/2019 Y1 (ATLAS),e,73.2850,31.5252,57.9607,85.63976,0.0012436,0.99029342,0.0000,03/15.5919/2020,2000,g 13.7,4.0
# From MPEC 2020-L06
C/2019 Y4 (ATLAS),h,05/31.0498/2020,45.8153,120.9351,177.2691,1.001383,0.251418,2000,11.6,6.0
# From MPEC 2020-L06
C/2019 Y4-A (ATLAS),h,05/31.0498/2020,45.8153,120.9351,177.2691,1.001383,0.251418,2000,11.6,6.0
# From MPEC 2020-L06
C/2019 Y4-B (ATLAS),e,45.4498,120.6310,177.4022,1302,0.0000210,0.99980568,0.0000,05/31.0284/2020,2000,g 12.8,6.0
# From MPEC 2020-L06
C/2019 Y4-C (ATLAS),h,05/31.0076/2020,45.5974,120.6609,177.3025,1.002102,0.252471,2000,12.7,6.0
# From MPEC 2020-L06
C/2019 Y4-D (ATLAS),e,45.6391,121.0411,177.4408,67.95004,0.0017596,0.99629348,0.0000,05/31.1259/2020,2000,g 12.5,6.0
# From MPEC 2021-P47
C/2019 Y5 (PANSTARRS),e,82.8069,51.7769,303.5108,821.6257,0.0000418,0.99401807,0.0000,08/18.2395/2019,2000,g 11.0,4.0
# From MPEC 2020-L06
C/2020 A2 (Iwamoto),e,120.7329,286.3722,68.1918,1361,0.0000196,0.99928206,0.0000,01/08.4308/2020,2000,g 13.5,4.0
# From MPEC 2020-L06
C/2020 A3 (ATLAS),h,07/29.8459/2019,146.7742,120.3804,271.1722,1.025824,5.838999,2000,8.0,4.0
# From MPEC 2020-L06
C/2020 B3 (Rankin),e,20.7084,185.8370,325.0364,1199,0.0000238,0.99721044,0.0000,10/19.5966/2019,2000,g 13.0,4.0
# From MPEC 2021-R75
C/2020 F2 (ATLAS),h,07/16.2836/2022,163.5803,250.2590,48.3706,1.004043,8.816915,2000,4.5,4.0
# From MPEC 2021-O56
C/2020 F3 (NEOWISE),e,128.9523,61.0162,37.2836,339.4579,0.0001576,0.99913156,0.0000,07/03.6379/2020,2000,g  7.5,5.2
# From MPEC 2021-R75
C/2020 F5 (MASTER),h,03/24.5107/2021,51.7420,350.6003,311.1202,1.005162,4.326168,2000,6.5,3.2
# From MPEC 2020-L06
C/2020 F6 (PANSTARRS),e,174.5825,207.8923,344.6203,405.9436,0.0001205,0.99135109,0.0000,04/11.7251/2020,2000,g 14.5,2.8
# From MPEC 2021-P47
C/2020 F7 (Lemmon),e,93.9539,321.8871,227.9723,709.9432,0.0000521,0.99248939,0.0000,11/14.0285/2021,2000,g  7.0,4.0
# From MPEC 2020-KB7
C/2020 F8 (SWAN),e,110.7657,259.9880,68.1977,271.2398,0.0002206,0.99841470,0.0000,05/27.5858/2020,2000,g 10.0,4.0
# From MPEC 2020-L06
P/2020 G1 (Pimentel),e,18.4803,240.0949,207.6488,3.609907,0.1437011,0.85990388,78.2669,09/13.0/2021,2000,g 17.0,4.0
# From MPEC 2020-L06
C/2020 H2 (Pruyne),e,125.0270,277.6443,26.7076,191.1773,0.0003729,0.99563967,0.0000,04/27.6443/2020,2000,g 18.0,4.0
# From MPEC 2020-HM1
C/2020 H3 (Wierzchos),p,06/05.7162/2020,62.5292,30.4456,2.300288,270.6227,2000,13.5,4.0
# From MPEC 2020-L06
C/2020 H4 (Leonard),e,84.5138,307.7346,117.5918,48.08874,0.0029556,0.98072946,0.0000,08/29.5334/2020,2000,g 15.0,3.2
# From MPEC 2021-O56
C/2020 H5 (Robinson),e,70.2277,210.6323,326.4056,3468,0.0000048,0.99730500,0.0000,12/12.0288/2020,2000,g  5.0,4.0
# From MPEC 2021-R75
C/2020 H6 (ATLAS),h,10/01.0744/2021,79.9668,213.7063,20.3478,1.000729,4.702893,2000,8.0,3.2
# From MPEC 2020-KB7
C/2020 H7 (Lemmon),e,135.9235,323.5194,82.6780,1405,0.0000187,0.99685380,0.0000,06/02.9510/2020,2000,g 11.0,4.0
# From MPEC 2021-N06
